COMMENT,ORIGINATOR,NORAD_CAT_ID,OBJECT_NAME,OBJECT_TYPE,CLASSIFICATION_TYPE,INTLDES,EPOCH,EPOCH_MICROSECONDS,MEAN_MOTION,ECCENTRICITY,INCLINATION,RA_OF_ASC_NODE,ARG_OF_PERICENTER,MEAN_ANOMALY,EPHEMERIS_TYPE,ELEMENT_SET_NO,REV_AT_EPOCH,BSTAR,MEAN_MOTION_DOT,MEAN_MOTION_DDOT,FILE,TLE_LINE0,TLE_LINE1,TLE_LINE2,OBJECT_ID,OBJECT_NUMBER,SEMIMAJOR_AXIS,PERIOD,APOGEE,PERIGEE,DECAYED
"GENERATED VIA SPACETRACK.ORG API","18 SPCS","55095","SPACEBEE-162","PAYLOAD","U","23001CQ","2024-02-28 03:08:52","443456","15.34381367","0.0011299","97.4371","123.6881","178.1663","181.9623","0","999","6413","0.0010827","0.00036166","0","4201074","0 SPACEBEE-162","1 55095U 23001CQ  24059.13116254  .00036166  00000-0  10827-2 0  9995","2 55095  97.4371 123.6881 0011299 178.1663 181.9623 15.34381367 64135","2023-001CQ","55095","6840.896","93.849","470.490","455.031","0"
"GENERATED VIA SPACETRACK.ORG API","18 SPCS","55095","SPACEBEE-162","PAYLOAD","U","23001CQ","2024-02-28 03:08:52","443456","15.34381367","0.0011299","97.4371","123.6881","178.1663","181.9623","0","999","6413","0.0010827","0.00036166","0","4201083","0 SPACEBEE-162","1 55095U 23001CQ  24059.13116254  .00036166  00000-0  10827-2 0  9995","2 55095  97.4371 123.6881 0011299 178.1663 181.9623 15.34381367 64135","2023-001CQ","55095","6840.896","93.849","470.490","455.031","0"
"GENERATED VIA SPACETRACK.ORG API","18 SPCS","55095","SPACEBEE-162","PAYLOAD","U","23001CQ","2024-02-28 17:14:03","65856","15.34420794","0.0011241","97.437","124.2795","175.9671","184.1665","0","999","6422","0.00099993","0.00033424","0","4201365","0 SPACEBEE-162","1 55095U 23001CQ  24059.71809104  .00033424  00000-0  99993-3 0  9998","2 55095  97.4370 124.2795 0011241 175.9671 184.1665 15.34420794 64225","2023-001CQ","55095","6840.778","93.846","470.333","454.954","0"
"GENERATED VIA SPACETRACK.ORG API","18 SPCS","55095","SPACEBEE-162","PAYLOAD","U","23001CQ","2024-02-29 10:27:00","926496","15.344672","0.0011392","97.4369","125.0027","173.5132","186.6261","0","999","6433","0.00094532","0.00031635","0","4201930","0 SPACEBEE-162","1 55095U 23001CQ  24060.43542739  .00031635  00000-0  94532-3 0  9993","2 55095  97.4369 125.0027 0011392 173.5132 186.6261 15.34467200 64337","2023-001CQ","55095","6840.641","93.844","470.298","454.713","0"
"GENERATED VIA SPACETRACK.ORG API","18 SPCS","55095","SPACEBEE-162","PAYLOAD","U","23001CQ","2024-02-29 10:27:00","926496","15.344672","0.0011392","97.4369","125.0027","173.5132","186.6261","0","999","6433","0.00094532","0.00031635","0","4201938","0 SPACEBEE-162","1 55095U 23001CQ  24060.43542739  .00031635  00000-0  94532-3 0  9993","2 55095  97.4369 125.0027 0011392 173.5132 186.6261 15.34467200 64337","2023-001CQ","55095","6840.641","93.844","470.298","454.713","0"
"GENERATED VIA SPACETRACK.ORG API","18 SPCS","55095","SPACEBEE-162","PAYLOAD","U","23001CQ","2024-02-29 16:42:37","882656","15.34483742","0.0011404","97.4369","125.2657","172.6604","187.4808","0","999","6437","0.00091157","0.00030515","0","4202276","0 SPACEBEE-162","1 55095U 23001CQ  24060.69627179  .00030515  00000-0  91157-3 0  9999","2 55095  97.4369 125.2657 0011404 172.6604 187.4808 15.34483742 64375","2023-001CQ","55095","6840.591","93.843","470.257","454.655","0"
"GENERATED VIA SPACETRACK.ORG API","18 SPCS","55095","SPACEBEE-162","PAYLOAD","U","23001CQ","2024-03-01 11:29:27","235680","15.34538114","0.0011458","97.4366","126.0546","170.2079","189.939","0","999","6449","0.0010878","0.00036521","0","4202819","0 SPACEBEE-162","1 55095U 23001CQ  24061.47878745  .00036521  00000-0  10878-2 0  9996","2 55095  97.4366 126.0546 0011458 170.2079 189.9390 15.34538114 64497","2023-001CQ","55095","6840.430","93.839","470.133","454.457","0"
"GENERATED VIA SPACETRACK.ORG API","18 SPCS","55095","SPACEBEE-162","PAYLOAD","U","23001CQ","2024-03-01 17:45:03","113568","15.34558512","0.0011466","97.4365","126.3174","169.42","190.7286","0","999","6453","0.0011136","0.00037418","0","4203428","0 SPACEBEE-162","1 55095U 23001CQ  24061.73961937  .00037418  00000-0  11136-2 0  9995","2 55095  97.4365 126.3174 0011466 169.4200 190.7286 15.34558512 64534","2023-001CQ","55095","6840.369","93.838","470.077","454.391","0"
"GENERATED VIA SPACETRACK.ORG API","18 SPCS","55095","SPACEBEE-162","PAYLOAD","U","23001CQ","2024-03-02 09:24:01","533888","15.34608775","0.0011492","97.4365","126.9747","167.2678","192.8857","0","999","6463","0.0011466","0.00038597","0","4204354","0 SPACEBEE-162","1 55095U 23001CQ  24062.39168442  .00038597  00000-0  11466-2 0  9993","2 55095  97.4365 126.9747 0011492 167.2678 192.8857 15.34608775 64635","2023-001CQ","55095","6840.220","93.835","469.946","454.224","0"
"GENERATED VIA SPACETRACK.ORG API","18 SPCS","55095","SPACEBEE-162","PAYLOAD","U","23001CQ","2024-03-02 17:13:30","31680","15.34634787","0.0011504","97.4365","127.3035","166.0534","194.1029","0","999","6468","0.0011271","0.00037968","0","4204894","0 SPACEBEE-162","1 55095U 23001CQ  24062.71770870  .00037968  00000-0  11271-2 0  9998","2 55095  97.4365 127.3035 0011504 166.0534 194.1029 15.34634787 64685","2023-001CQ","55095","6840.142","93.833","469.876","454.139","0"
"GENERATED VIA SPACETRACK.ORG API","18 SPCS","55095","SPACEBEE-162","PAYLOAD","U","23001CQ","2024-03-02 17:13:30","31680","15.34634787","0.0011504","97.4365","127.3035","166.0534","194.1029","0","999","6468","0.0011271","0.00037968","0","4204905","0 SPACEBEE-162","1 55095U 23001CQ  24062.71770870  .00037968  00000-0  11271-2 0  9998","2 55095  97.4365 127.3035 0011504 166.0534 194.1029 15.34634787 64685","2023-001CQ","55095","6840.142","93.833","469.876","454.139","0"
"GENERATED VIA SPACETRACK.ORG API","18 SPCS","55095","SPACEBEE-162","PAYLOAD","U","23001CQ","2024-03-03 10:26:19","85568","15.34691801","0.0011547","97.4367","128.0267","163.4479","196.7143","0","999","6479","0.0011821","0.00039907","0","4206173","0 SPACEBEE-162","1 55095U 23001CQ  24063.43494312  .00039907  00000-0  11821-2 0  9998","2 55095  97.4367 128.0267 0011547 163.4479 196.7143 15.34691801 64795","2023-001CQ","55095","6839.973","93.830","469.736","453.940","0"
"GENERATED VIA SPACETRACK.ORG API","18 SPCS","55095","SPACEBEE-162","PAYLOAD","U","23001CQ","2024-03-03 16:41:52","741248","15.34711329","0.0011554","97.4367","128.2897","162.5692","197.595","0","999","6483","0.0011312","0.00038201","0","4206364","0 SPACEBEE-162","1 55095U 23001CQ  24063.69574932  .00038201  00000-0  11312-2 0  9994","2 55095  97.4367 128.2897 0011554 162.5692 197.5950 15.34711329 64839","2023-001CQ","55095","6839.915","93.829","469.683","453.877","0"
"GENERATED VIA SPACETRACK.ORG API","18 SPCS","55095","SPACEBEE-162","PAYLOAD","U","23001CQ","2024-03-04 03:39:05","390208","15.34791349","0.0011548","97.4365","128.7499","161.1557","199.0116","0","999","6490","0.0023777","0.00081036","0","4207192","0 SPACEBEE-162","1 55095U 23001CQ  24064.15214572  .00081036  00000-0  23777-2 0  9999","2 55095  97.4365 128.7499 0011548 161.1557 199.0116 15.34791349 64907","2023-001CQ","55095","6839.677","93.824","469.441","453.644","0"
"GENERATED VIA SPACETRACK.ORG API","18 SPCS","55095","SPACEBEE-162","PAYLOAD","U","23001CQ","2024-03-04 03:39:05","390208","15.34791349","0.0011548","97.4365","128.7499","161.1557","199.0116","0","999","6490","0.0023777","0.00081036","0","4208022","0 SPACEBEE-162","1 55095U 23001CQ  24064.15214572  .00081036  00000-0  23777-2 0  9999","2 55095  97.4365 128.7499 0011548 161.1557 199.0116 15.34791349 64907","2023-001CQ","55095","6839.677","93.824","469.441","453.644","0"
"GENERATED VIA SPACETRACK.ORG API","18 SPCS","55095","SPACEBEE-162","PAYLOAD","U","23001CQ","2024-03-04 17:44:03","37056","15.34818425","0.0011562","97.4365","129.3415","159.2818","200.8896","0","999","6499","0.0010786","0.00036537","0","4208577","0 SPACEBEE-162","1 55095U 23001CQ  24064.73892404  .00036537  00000-0  10786-2 0  9991","2 55095  97.4365 129.3415 0011562 159.2818 200.8896 15.34818425 64996","2023-001CQ","55095","6839.597","93.822","469.370","453.554","0"
"GENERATED VIA SPACETRACK.ORG API","18 SPCS","55095","SPACEBEE-162","PAYLOAD","U","23001CQ","2024-03-04 22:25:41","721888","15.34839756","0.0011575","97.4364","129.5388","158.6516","201.5212","0","999","6502","0.0011219","0.0003804","0","4208633","0 SPACEBEE-162","1 55095U 23001CQ  24064.93451067  .00038040  00000-0  11219-2 0  9992","2 55095  97.4364 129.5388 0011575 158.6516 201.5212 15.34839756 65023","2023-001CQ","55095","6839.534","93.821","469.315","453.482","0"
"GENERATED VIA SPACETRACK.ORG API","18 SPCS","55095","SPACEBEE-162","PAYLOAD","U","23001CQ","2024-03-05 03:07:20","254656","15.34857686","0.0011542","97.4366","129.7362","158.2514","201.9221","0","999","6505","0.0010803","0.00036641","0","4209183","0 SPACEBEE-162","1 55095U 23001CQ  24065.13009554  .00036641  00000-0  10803-2 0  9998","2 55095  97.4366 129.7362 0011542 158.2514 201.9221 15.34857686 65056","2023-001CQ","55095","6839.480","93.820","469.239","453.451","0"
"GENERATED VIA SPACETRACK.ORG API","18 SPCS","55095","SPACEBEE-162","PAYLOAD","U","23001CQ","2024-03-05 17:12:14","677056","15.34913092","0.0011605","97.4366","130.3276","156.0319","204.1467","0","999","6514","0.0011508","0.00039119","0","4210312","0 SPACEBEE-162","1 55095U 23001CQ  24065.71683654  .00039119  00000-0  11508-2 0  9997","2 55095  97.4366 130.3276 0011605 156.0319 204.1467 15.34913092 65148","2023-001CQ","55095","6839.316","93.816","469.118","453.244","0"
"GENERATED VIA SPACETRACK.ORG API","18 SPCS","55095","SPACEBEE-162","PAYLOAD","U","23001CQ","2024-03-06 02:35:29","964480","15.34951855","0.0011688","97.4363","130.722","154.8328","205.3487","0","999","6520","0.0012858","0.000438","0","4211356","0 SPACEBEE-162","1 55095U 23001CQ  24066.10798570  .00043800  00000-0  12858-2 0  9996","2 55095  97.4363 130.7220 0011688 154.8328 205.3487 15.34951855 65206","2023-001CQ","55095","6839.201","93.814","469.059","453.072","0"
